[{"OBJECT_NAME":"ONEWEB-0538","OBJECT_ID":"2023-043B","EPOCH":"2026-03-09T22:28:10.742016","MEAN_MOTION":13.16593549,"ECCENTRICITY":0.00019125,"INCLINATION":87.9002,"RA_OF_ASC_NODE":248.5147,"ARG_OF_PERICENTER":94.6574,"MEAN_ANOMALY":265.4776,"EPHEMERIS_TYPE":0,"CLASSIFICATION_TYPE":"U","NORAD_CAT_ID":56047,"ELEMENT_SET_NO":999,"REV_AT_EPOCH":14591,"BSTAR":0.00019303062,"MEAN_MOTION_DOT":8.7e-7,"MEAN_MOTION_DDOT":0},{"OBJECT_NAME":"SCOUT G-1 R\/B","OBJECT_ID":"1985-066C","EPOCH":"2026-03-09T14:12:10.795104","MEAN_MOTION":13.35448878,"ECCENTRICITY":0.0167666,"INCLINATION":90.1655,"RA_OF_ASC_NODE":96.016,"ARG_OF_PERICENTER":227.1317,"MEAN_ANOMALY":131.5642,"EPHEMERIS_TYPE":0,"CLASSIFICATION_TYPE":"U","NORAD_CAT_ID":15938,"ELEMENT_SET_NO":999,"REV_AT_EPOCH":97540,"BSTAR":9.1498e-5,"MEAN_MOTION_DOT":5.8e-7,"MEAN_MOTION_DDOT":0}]
